sat13053
1 13053U 81053EY  20046.92585978  .00000346  00000-0  37705-3 0  9992
2 13053  83.0764 283.4189 0123127  10.7897   1.1389 13.66928702907052
